     2.100          NAVIGATION                              RINEX VERSION / TYPE
fic2rin                                 12/01/2009 00:53:23 PGM / RUN BY / DATE
                                                            END OF HEADER
 5 09 11 30 16  0  0.0 -.358312390745D-04  .602540239925D-11  .000000000000D+00
     .700000000000D+01  .137031250000D+03  .445732852277D-08 -.223694311960D+01
     .712089240551D-05  .169800000731D-02  .556185841560D-05  .515361000252D+04
     .144000000000D+06  .130385160446D-07 -.273612665217D+01  .540167093277D-07
     .961021351540D+00  .274843750000D+03  .253943578181D+00 -.811462372094D-08
     .196079596074D-09  .100000000000D+01  .156000000000D+04  .000000000000D+00
     .240000000000D+01  .000000000000D+00 -.884756445885D-08  .700000000000D+01
     .136806000000D+06  .400000000000D+01
 6 09 11 30 16  0  0.0  .263081397861D-03  .909494701773D-12  .000000000000D+00
     .850000000000D+02 -.484375000000D+01  .573809615759D-08 -.158543790874D+01
    -.875443220139D-07  .579396798275D-02  .521540641785D-05  .515365023041D+04
     .144000000000D+06 -.108033418655D-06  .140796277603D+01  .931322574615D-07
     .933591878935D+00  .266875000000D+03 -.119919579635D+01 -.853142679674D-08
    -.100718481043D-09  .100000000000D+01  .156000000000D+04  .000000000000D+00
     .240000000000D+01  .000000000000D+00 -.512227416039D-08  .850000000000D+02
     .136806000000D+06  .400000000000D+01
 7 09 11 30 16  0  0.0  .678980723023D-05 -.682121026330D-12  .000000000000D+00
     .100000000000D+02 -.124000000000D+03  .397909431668D-08  .907984062644D+00
    -.642426311970D-05  .326094427146D-02  .931695103645D-05  .515364771271D+04
     .144000000000D+06  .558793544769D-07 -.636120797145D+00  .819563865662D-07
     .969895002991D+00  .204843750000D+03  .304737967745D+01 -.777103798064D-08
     .357157734196D-12  .100000000000D+01  .156000000000D+04  .000000000000D+00
     .240000000000D+01  .000000000000D+00 -.107102096081D-07  .100000000000D+02
     .136806000000D+06  .400000000000D+01
 8 09 11 30 16  0  0.0  .339001417160D-06  .454747350886D-12  .000000000000D+00
     .830000000000D+02 -.111250000000D+03  .350800326527D-08  .305438401364D+00
    -.584125518799D-05  .109943298157D-01  .957772135735D-05  .515361230659D+04
     .144000000000D+06  .180676579475D-06 -.571913770298D+00 -.130385160446D-07
     .991210399663D+00  .211406250000D+03  .306765688943D+01 -.767496255014D-08
     .564309220030D-10  .100000000000D+01  .156000000000D+04  .000000000000D+00
     .340000000000D+01  .000000000000D+00 -.372529029846D-08  .830000000000D+02
     .136806000000D+06  .400000000000D+01
 9 09 11 30 16  0  0.0  .914195552468D-04  .216004991671D-11  .000000000000D+00
     .310000000000D+02 -.126781250000D+03  .387158983869D-08  .100340541643D+00
    -.679306685925D-05  .206100821961D-01  .100750476122D-04  .515362790108D+04
     .144000000000D+06 -.350177288055D-06 -.668783151126D+00 -.298023223877D-07
     .978713875476D+00  .199843750000D+03  .152059289308D+01 -.806140721854D-08
    -.603596570791D-10  .100000000000D+01  .156000000000D+04  .000000000000D+00
     .340000000000D+01  .000000000000D+00 -.558793544769D-08  .310000000000D+02
     .136806000000D+06  .400000000000D+01
10 09 11 30 16  0  0.0 -.294316560030D-04 -.795807864051D-12  .000000000000D+00
     .390000000000D+02  .136968750000D+03  .453983195937D-08 -.242310463709D+01
     .705756247044D-05  .880867254455D-02  .511109828949D-05  .515341352654D+04
     .144000000000D+06  .614672899246D-07 -.270937209389D+01 -.614672899246D-07
     .956071320985D+00  .280593750000D+03  .625075865124D+00 -.809355141462D-08
     .252867675811D-09  .100000000000D+01  .156000000000D+04  .000000000000D+00
     .240000000000D+01  .000000000000D+00 -.279396772385D-08  .390000000000D+02
     .136806000000D+06  .400000000000D+01
11 09 11 30 16  0  0.0 -.318638049066D-04 -.204636307899D-11  .000000000000D+00
     .860000000000D+02 -.425000000000D+01  .628811906826D-08  .804820883472D+00
     .372529029846D-07  .102983996039D-01  .992044806480D-05  .515371005249D+04
     .144000000000D+06 -.149011611938D-06  .227964697546D+01  .968575477600D-07
     .888766799173D+00  .149437500000D+03  .766755140624D+00 -.884072539456D-08
    -.768603443990D-09  .100000000000D+01  .156000000000D+04  .000000000000D+00
     .240000000000D+01  .000000000000D+00 -.116415321827D-07  .860000000000D+02
     .136806000000D+06  .400000000000D+01
12 09 11 30 16  0  0.0 -.182898249477D-03  .522959453519D-11  .000000000000D+00
     .121000000000D+03  .593750000000D+01  .448482966830D-08  .103275473349D+01
     .337138772011D-06  .320306688081D-02  .938773155212D-05  .515379777527D+04
     .144000000000D+06  .104308128357D-06  .416353710712D+00  .149011611938D-07
     .969028345452D+00  .206343750000D+03 -.558255027917D+00 -.782211153663D-08
     .725030200418D-09  .100000000000D+01  .156000000000D+04  .000000000000D+00
     .240000000000D+01  .000000000000D+00 -.121071934700D-07  .121000000000D+03
     .136806000000D+06  .400000000000D+01
13 09 11 30 16  0  0.0  .306427478790D-03  .113686837722D-12  .000000000000D+00
     .105000000000D+03 -.567187500000D+02  .393087802256D-08 -.297066085209D+01
    -.285170972347D-05  .393283378799D-02  .767409801483D-06  .515361906624D+04
     .144000000000D+06  .391155481339D-07 -.162169101124D+01 -.167638063431D-07
     .993745986332D+00  .382812500000D+03  .165222956512D+01 -.801390523989D-08
    -.157506560780D-09  .100000000000D+01  .156000000000D+04  .000000000000D+00
     .240000000000D+01  .000000000000D+00 -.111758708954D-07  .105000000000D+03
     .136806000000D+06  .400000000000D+01
14 09 11 30 16  0  0.0 -.179400667548D-04  .477484718431D-11  .000000000000D+00
     .810000000000D+02 -.638750000000D+02  .407588406265D-08 -.306927966642D+01
    -.319257378578D-05  .509908422828D-02  .182539224625D-06  .515367755127D+04
     .144000000000D+06  .558793544769D-08 -.164238296782D+01 -.931322574615D-08
     .987129196156D+00  .388750000000D+03 -.210793597698D+01 -.815998275318D-08
    -.147863301957D-09  .100000000000D+01  .156000000000D+04  .000000000000D+00
     .240000000000D+01  .000000000000D+00 -.884756445885D-08  .810000000000D+02
     .136806000000D+06  .400000000000D+01
15 09 11 30 16  0  0.0 -.319212675095D-03  .795807864051D-12  .000000000000D+00
     .620000000000D+02 -.422812500000D+02  .488270338419D-08 -.286182587954D+01
    -.212527811527D-05  .208442145959D-02  .160187482834D-06  .515369239235D+04
     .144000000000D+06 -.409781932831D-07 -.170081282145D+01 -.111758708954D-07
     .954954121169D+00  .373437500000D+03 -.459858299173D+00 -.858107172180D-08
    -.105004373854D-09  .100000000000D+01  .156000000000D+04  .000000000000D+00
     .240000000000D+01  .000000000000D+00 -.977888703346D-08  .620000000000D+02
     .136806000000D+06  .400000000000D+01
16 09 11 30 16  0  0.0 -.142459757626D-04 -.420641299570D-11  .000000000000D+00
     .470000000000D+02  .415625000000D+01  .438482550273D-08 -.138193377977D+01
    -.149011611938D-07  .538966048043D-02  .939890742302D-05  .515366106033D+04
     .144000000000D+06  .186264514923D-08  .433554129487D+00 -.838190317154D-07
     .970346532657D+00  .204281250000D+03 -.269018801233D+00 -.778961018282D-08
     .770746390395D-09  .100000000000D+01  .156000000000D+04  .000000000000D+00
     .240000000000D+01  .000000000000D+00 -.977888703346D-08  .470000000000D+02
     .136806000000D+06  .400000000000D+01
19 09 11 30 16  0  0.0 -.143330544233D-05 -.204636307899D-11  .000000000000D+00
     .400000000000D+02 -.125000000000D+02  .514985736937D-08  .305390803130D+01
    -.547617673874D-06  .592687993776D-02  .550970435143D-05  .515366390991D+04
     .144000000000D+06 -.106170773506D-06  .153199492926D+01  .149011611938D-07
     .957064455108D+00  .271250000000D+03 -.195268558496D+00 -.811105214359D-08
    -.239652839646D-09  .100000000000D+01  .156000000000D+04  .000000000000D+00
     .240000000000D+01  .000000000000D+00 -.144354999065D-07  .400000000000D+02
     .136806000000D+06  .400000000000D+01
20 09 11 30 16  0  0.0  .664708204567D-04 -.795807864051D-12  .000000000000D+00
     .350000000000D+02  .139718750000D+03  .496484966306D-08 -.101726692219D+01
     .721774995327D-05  .403380638454D-02  .619888305664D-05  .515373337746D+04
     .144000000000D+06 -.558793544769D-07 -.276064165402D+01  .875443220139D-07
     .939865872295D+00  .247593750000D+03  .129085692110D+01 -.839820696189D-08
     .126790995640D-09  .100000000000D+01  .156000000000D+04  .000000000000D+00
     .240000000000D+01  .000000000000D+00 -.745058059692D-08  .350000000000D+02
     .136806000000D+06  .400000000000D+01
21 09 11 30 16  0  0.0 -.246176496148D-04 -.238742359215D-11  .000000000000D+00
     .420000000000D+02  .488437500000D+02  .503378110576D-08 -.458644713536D-02
     .253692269325D-05  .157069312409D-01  .110715627670D-04  .515373876381D+04
     .144000000000D+06  .633299350739D-07  .251918882150D+01  .152736902237D-06
     .933365092985D+00  .150687500000D+03 -.254474412781D+01 -.836963434315D-08
    -.637526555540D-09  .100000000000D+01  .156000000000D+04  .000000000000D+00
     .240000000000D+01  .000000000000D+00 -.121071934700D-07  .420000000000D+02
     .136806000000D+06  .400000000000D+01
22 09 11 30 16  0  0.0  .185126438737D-03 -.909494701773D-12  .000000000000D+00
     .860000000000D+02  .161843750000D+03  .492091926175D-08 -.221488049217D+01
     .829808413982D-05  .523620645981D-02  .515766441822D-05  .515366889000D+04
     .144000000000D+06  .856816768646D-07 -.270147102988D+01 -.912696123123D-07
     .937748924504D+00  .270093750000D+03 -.187744745945D+01 -.831034615927D-08
     .208937274505D-09  .100000000000D+01  .156000000000D+04  .000000000000D+00
     .240000000000D+01  .000000000000D+00 -.176951289177D-07  .860000000000D+02
     .136806000000D+06  .400000000000D+01
